STARLINK-32177          
1 60441U 24144S   26068.63158890 -.00001082  00000+0 -24408-4 0  9996
2 60441  53.1602 217.1586 0001197  60.2695 299.8425 15.30187894 89305
NUSHSAT1                
1 63211U 25052B   26068.64700493  .00023034  00000+0  74857-3 0  9997
2 63211  97.4095 325.7239 0005501  84.7512 275.4357 15.31903202 54882
